[{"OBJECT_NAME":"STARLINK-5606","OBJECT_ID":"2023-028AC","EPOCH":"2026-03-09T22:10:22.085472","MEAN_MOTION":14.98333014,"ECCENTRICITY":0.0003132,"INCLINATION":69.9999,"RA_OF_ASC_NODE":224.0478,"ARG_OF_PERICENTER":271.2549,"MEAN_ANOMALY":88.8251,"EPHEMERIS_TYPE":0,"CLASSIFICATION_TYPE":"U","NORAD_CAT_ID":55767,"ELEMENT_SET_NO":999,"REV_AT_EPOCH":16654,"BSTAR":4.4871917e-5,"MEAN_MOTION_DOT":4.42e-6,"MEAN_MOTION_DDOT":0},{"OBJECT_NAME":"SHIYAN-24C 03","OBJECT_ID":"2023-206C","EPOCH":"2026-03-09T21:23:43.281888","MEAN_MOTION":14.97896938,"ECCENTRICITY":0.0002411,"INCLINATION":97.3969,"RA_OF_ASC_NODE":41.7507,"ARG_OF_PERICENTER":66.6237,"MEAN_ANOMALY":293.524,"EPHEMERIS_TYPE":0,"CLASSIFICATION_TYPE":"U","NORAD_CAT_ID":58652,"ELEMENT_SET_NO":999,"REV_AT_EPOCH":12043,"BSTAR":0.00011928,"MEAN_MOTION_DOT":1.35e-5,"MEAN_MOTION_DDOT":0}]
